start=new Date('2022-07-06T00:00:00.000Z').valueOf();
sats=[{"OBJECT_ID":"2021-082H","ECCENTRICITY":"0.00028490","MEAN_ANOMALY":"98.6458","RCS_SIZE":"LARGE","OBJECT_TYPE":"PAYLOAD","EPHEMERIS_TYPE":"0","PERIAPSIS":"575.058","CLASSIFICATION_TYPE":"U","MEAN_MOTION_DDOT":"0.0000000000000","MEAN_MOTION":"14.96720463","REF_FRAME":"TEME","ARG_OF_PERICENTER":"261.4378","LAUNCH_DATE":"2021-09-14","COUNTRY_CODE":"US","OBJECT_NAME":"STARLINK-3055","APOAPSIS":"579.021","SITE":"AFWTR","PERIOD":"96.210","DECAY_DATE":null,"TLE_LINE2":"2 49137  70.0007  59.8196 0002849 261.4378  98.6458 14.96720463 45340","REV_AT_EPOCH":"4534","ELEMENT_SET_NO":"999","INCLINATION":"70.0007","TLE_LINE1":"1 49137U 21082H   22186.88081000  .00000209  00000-0  26248-4 0  9998","TIME_SYSTEM":"UTC","GP_ID":"207482491","BSTAR":"0.00002624800000","EPOCH":"2022-07-05T21:08:21.984000","MEAN_MOTION_DOT":"0.00000209","SEMIMAJOR_AXIS":"6955.175","NORAD_CAT_ID":"49137","FILE":"3508255","CENTER_NAME":"EARTH","RA_OF_ASC_NODE":"59.8196","MEAN_ELEMENT_THEORY":"SGP4"},{"SEMIMAJOR_AXIS":"6950.212","BSTAR":"0.00004314000000","EPOCH":"2022-07-05T10:26:07.350720","MEAN_MOTION_DOT":"0.00000422","FILE":"3508171","NORAD_CAT_ID":"49138","CENTER_NAME":"EARTH","RA_OF_ASC_NODE":"81.2711","MEAN_ELEMENT_THEORY":"SGP4","PERIOD":"96.107","TLE_LINE2":"2 49138  70.0009  81.2711 0003183 257.1477 102.9327 14.98323726 44772","DECAY_DATE":null,"INCLINATION":"70.0009","REV_AT_EPOCH":"4477","ELEMENT_SET_NO":"999","TIME_SYSTEM":"UTC","TLE_LINE1":"1 49138U 21082J   22186.43480730  .00000422  00000-0  43140-4 0  9990","GP_ID":"207478568","MEAN_MOTION":"14.98323726","CLASSIFICATION_TYPE":"U","MEAN_MOTION_DDOT":"0.0000000000000","REF_FRAME":"TEME","ARG_OF_PERICENTER":"257.1477","LAUNCH_DATE":"2021-09-14","OBJECT_NAME":"STARLINK-3058","APOAPSIS":"574.290","SITE":"AFWTR","COUNTRY_CODE":"US","MEAN_ANOMALY":"102.9327","OBJECT_ID":"2021-082J","ECCENTRICITY":"0.00031830","OBJECT_TYPE":"PAYLOAD","RCS_SIZE":"LARGE","EPHEMERIS_TYPE":"0","PERIAPSIS":"569.865"},{"PERIOD":"96.211","TLE_LINE2":"2 49139  69.9986  41.0049 0002874 273.7530  86.3299 14.96714607 45754","DECAY_DATE":null,"INCLINATION":"69.9986","REV_AT_EPOCH":"4575","ELEMENT_SET_NO":"999","TIME_SYSTEM":"UTC","TLE_LINE1":"1 49139U 21082K   22186.30311308  .00001253  00000-0  11746-3 0  9990","GP_ID":"207479314","SEMIMAJOR_AXIS":"6955.193","EPOCH":"2022-07-05T07:16:28.970112","BSTAR":"0.00011746000000","MEAN_MOTION_DOT":"0.00001253","FILE":"3508171","NORAD_CAT_ID":"49139","RA_OF_ASC_NODE":"41.0049","CENTER_NAME":"EARTH","MEAN_ELEMENT_THEORY":"SGP4","MEAN_ANOMALY":"86.3299","ECCENTRICITY":"0.00028740","OBJECT_ID":"2021-082K","OBJECT_TYPE":"PAYLOAD","RCS_SIZE":"LARGE","EPHEMERIS_TYPE":"0","PERIAPSIS":"575.059","MEAN_MOTION":"14.96714607","CLASSIFICATION_TYPE":"U","MEAN_MOTION_DDOT":"0.0000000000000","ARG_OF_PERICENTER":"273.7530","REF_FRAME":"TEME","LAUNCH_DATE":"2021-09-14","OBJECT_NAME":"STARLINK-3057","APOAPSIS":"579.057","SITE":"AFWTR","COUNTRY_CODE":"US"},{"OBJECT_ID":"2021-082L","ECCENTRICITY":"0.00027220","MEAN_ANOMALY":"90.9546","RCS_SIZE":"LARGE","OBJECT_TYPE":"PAYLOAD","PERIAPSIS":"575.157","EPHEMERIS_TYPE":"0","MEAN_MOTION_DDOT":"0.0000000000000","CLASSIFICATION_TYPE":"U","MEAN_MOTION":"14.96717137","ARG_OF_PERICENTER":"269.1300","REF_FRAME":"TEME","LAUNCH_DATE":"2021-09-14","COUNTRY_CODE":"US","SITE":"AFWTR","APOAPSIS":"578.943","OBJECT_NAME":"STARLINK-3118","TLE_LINE2":"2 49140  69.9991  39.5157 0002722 269.1300  90.9546 14.96717137 45847","DECAY_DATE":null,"PERIOD":"96.211","ELEMENT_SET_NO":"999","REV_AT_EPOCH":"4584","INCLINATION":"69.9991","TIME_SYSTEM":"UTC","TLE_LINE1":"1 49140U 21082L   22186.89485029  .00000052  00000-0  12541-4 0  9999","GP_ID":"207482486","MEAN_MOTION_DOT":"0.00000052","BSTAR":"0.00001254100000","EPOCH":"2022-07-05T21:28:35.065056","SEMIMAJOR_AXIS":"6955.185","NORAD_CAT_ID":"49140","FILE":"3508255","RA_OF_ASC_NODE":"39.5157","MEAN_ELEMENT_THEORY":"SGP4","CENTER_NAME":"EARTH"},{"FILE":"3508171","NORAD_CAT_ID":"49141","RA_OF_ASC_NODE":"81.2765","CENTER_NAME":"EARTH","MEAN_ELEMENT_THEORY":"SGP4","SEMIMAJOR_AXIS":"6950.188","BSTAR":"-0.00012709000000","EPOCH":"2022-07-05T10:19:15.621888","MEAN_MOTION_DOT":"-0.00001609","TLE_LINE1":"1 49141U 21082M   22186.43004192 -.00001609  00000-0 -12709-3 0  9994","TIME_SYSTEM":"UTC","GP_ID":"207478317","PERIOD":"96.107","TLE_LINE2":"2 49141  69.9987  81.2765 0002817 257.8073 102.2770 14.98331551 45972","DECAY_DATE":null,"INCLINATION":"69.9987","REV_AT_EPOCH":"4597","ELEMENT_SET_NO":"999","LAUNCH_DATE":"2021-09-14","OBJECT_NAME":"STARLINK-3093","APOAPSIS":"574.011","SITE":"AFWTR","COUNTRY_CODE":"US","MEAN_MOTION":"14.98331551","CLASSIFICATION_TYPE":"U","MEAN_MOTION_DDOT":"0.0000000000000","ARG_OF_PERICENTER":"257.8073","REF_FRAME":"TEME","EPHEMERIS_TYPE":"0","PERIAPSIS":"570.095","MEAN_ANOMALY":"102.2770","ECCENTRICITY":"0.00028170","OBJECT_ID":"2021-082M","OBJECT_TYPE":"PAYLOAD","RCS_SIZE":"LARGE"},{"SEMIMAJOR_AXIS":"6955.215","MEAN_MOTION_DOT":"-0.00000935","BSTAR":"-0.00007372200000","EPOCH":"2022-07-05T21:21:33.055488","FILE":"3508255","NORAD_CAT_ID":"49142","RA_OF_ASC_NODE":"39.5390","MEAN_ELEMENT_THEORY":"SGP4","CENTER_NAME":"EARTH","TLE_LINE2":"2 49142  70.0001  39.5390 0002912 263.9526  96.1300 14.96707525 45842","DECAY_DATE":null,"PERIOD":"96.211","INCLINATION":"70.0001","ELEMENT_SET_NO":"999","REV_AT_EPOCH":"4584","TLE_LINE1":"1 49142U 21082N   22186.88996592 -.00000935  00000-0 -73722-4 0  9992","TIME_SYSTEM":"UTC","GP_ID":"207482487","MEAN_MOTION":"14.96707525","MEAN_MOTION_DDOT":"0.0000000000000","CLASSIFICATION_TYPE":"U","REF_FRAME":"TEME","ARG_OF_PERICENTER":"263.9526","LAUNCH_DATE":"2021-09-14","SITE":"AFWTR","OBJECT_NAME":"STARLINK-3042","APOAPSIS":"579.105","COUNTRY_CODE":"US","MEAN_ANOMALY":"96.1300","ECCENTRICITY":"0.00029120","OBJECT_ID":"2021-082N","OBJECT_TYPE":"PAYLOAD","RCS_SIZE":"LARGE","PERIAPSIS":"575.054","EPHEMERIS_TYPE":"0"},{"ELEMENT_SET_NO":"999","REV_AT_EPOCH":"4533","INCLINATION":"69.9987","TLE_LINE2":"2 49143  69.9987  59.8311 0002944 259.6409 100.4417 14.96719115 45338","DECAY_DATE":null,"PERIOD":"96.210","GP_ID":"207482493","TLE_LINE1":"1 49143U 21082P   22186.87598088 -.00001370  00000-0 -11171-3 0  9993","TIME_SYSTEM":"UTC","MEAN_MOTION_DOT":"-0.00001370","BSTAR":"-0.00011171000000","EPOCH":"2022-07-05T21:01:24.748032","SEMIMAJOR_AXIS":"6955.179","RA_OF_ASC_NODE":"59.8311","CENTER_NAME":"EARTH","MEAN_ELEMENT_THEORY":"SGP4","NORAD_CAT_ID":"49143","FILE":"3508255","RCS_SIZE":"LARGE","OBJECT_TYPE":"PAYLOAD","OBJECT_ID":"2021-082P","ECCENTRICITY":"0.00029440","MEAN_ANOMALY":"100.4417","PERIAPSIS":"574.996","EPHEMERIS_TYPE":"0","REF_FRAME":"TEME","ARG_OF_PERICENTER":"259.6409","MEAN_MOTION_DDOT":"0.0000000000000","CLASSIFICATION_TYPE":"U","MEAN_MOTION":"14.96719115","COUNTRY_CODE":"US","SITE":"AFWTR","APOAPSIS":"579.091","OBJECT_NAME":"STARLINK-3109","LAUNCH_DATE":"2021-09-14"},{"MEAN_MOTION":"14.98332057","CLASSIFICATION_TYPE":"U","MEAN_MOTION_DDOT":"0.0000000000000","REF_FRAME":"TEME","ARG_OF_PERICENTER":"268.0865","LAUNCH_DATE":"2021-09-14","APOAPSIS":"574.016","OBJECT_NAME":"STARLINK-3100","SITE":"AFWTR","COUNTRY_CODE":"US","MEAN_ANOMALY":"91.9970","OBJECT_ID":"2021-082Q","ECCENTRICITY":"0.00028260","OBJECT_TYPE":"PAYLOAD","RCS_SIZE":"LARGE","EPHEMERIS_TYPE":"0","PERIAPSIS":"570.087","SEMIMAJOR_AXIS":"6950.187","BSTAR":"-0.00016804000000","EPOCH":"2022-07-05T10:12:23.525856","MEAN_MOTION_DOT":"-0.00002097","FILE":"3508171","NORAD_CAT_ID":"49144","MEAN_ELEMENT_THEORY":"SGP4","RA_OF_ASC_NODE":"81.3047","CENTER_NAME":"EARTH","PERIOD":"96.107","TLE_LINE2":"2 49144  69.9994  81.3047 0002826 268.0865  91.9970 14.98332057 44775","DECAY_DATE":null,"INCLINATION":"69.9994","REV_AT_EPOCH":"4477","ELEMENT_SET_NO":"999","TLE_LINE1":"1 49144U 21082Q   22186.42527229 -.00002097  00000-0 -16804-3 0  9999","TIME_SYSTEM":"UTC","GP_ID":"207478068"},{"PERIAPSIS":"575.006","EPHEMERIS_TYPE":"0","ECCENTRICITY":"0.00029580","OBJECT_ID":"2021-082R","MEAN_ANOMALY":"97.4910","RCS_SIZE":"LARGE","OBJECT_TYPE":"PAYLOAD","LAUNCH_DATE":"2021-09-14","COUNTRY_CODE":"US","SITE":"AFWTR","OBJECT_NAME":"STARLINK-3119","APOAPSIS":"579.121","MEAN_MOTION_DDOT":"0.0000000000000","CLASSIFICATION_TYPE":"U","MEAN_MOTION":"14.96712896","ARG_OF_PERICENTER":"262.5912","REF_FRAME":"TEME","TIME_SYSTEM":"UTC","TLE_LINE1":"1 49145U 21082R   22186.34268150 -.00000639  00000-0 -47851-4 0  9993","GP_ID":"207477817","TLE_LINE2":"2 49145  69.9973  40.9278 0002958 262.5912  97.4910 14.96712896 45753","DECAY_DATE":null,"PERIOD":"96.211","ELEMENT_SET_NO":"999","REV_AT_EPOCH":"4575","INCLINATION":"69.9973","NORAD_CAT_ID":"49145","FILE":"3508171","RA_OF_ASC_NODE":"40.9278","MEAN_ELEMENT_THEORY":"SGP4","CENTER_NAME":"EARTH","MEAN_MOTION_DOT":"-0.00000639","BSTAR":"-0.00004785100000","EPOCH":"2022-07-05T08:13:27.681600","SEMIMAJOR_AXIS":"6955.198"},{"SITE":"AFWTR","APOAPSIS":"579.228","OBJECT_NAME":"STARLINK-3116","COUNTRY_CODE":"US","LAUNCH_DATE":"2021-09-14","REF_FRAME":"TEME","ARG_OF_PERICENTER":"265.4221","MEAN_MOTION":"14.96723391","MEAN_MOTION_DDOT":"0.0000000000000","CLASSIFICATION_TYPE":"U","PERIAPSIS":"574.833","EPHEMERIS_TYPE":"0","OBJECT_TYPE":"PAYLOAD","RCS_SIZE":"LARGE","MEAN_ANOMALY":"94.6576","ECCENTRICITY":"0.00031600","OBJECT_ID":"2021-082S","CENTER_NAME":"EARTH","RA_OF_ASC_NODE":"61.0201","MEAN_ELEMENT_THEORY":"SGP4","FILE":"3508171","NORAD_CAT_ID":"49146","SEMIMAJOR_AXIS":"6955.166","MEAN_MOTION_DOT":"-0.00000194","BSTAR":"-0.00000898140000","EPOCH":"2022-07-05T09:40:45.020640","GP_ID":"207478569","TIME_SYSTEM":"UTC","TLE_LINE1":"1 49146U 21082S   22186.40329885 -.00000194  00000-0 -89814-5 0  9996","INCLINATION":"70.0001","ELEMENT_SET_NO":"999","REV_AT_EPOCH":"4642","TLE_LINE2":"2 49146  70.0001  61.0201 0003160 265.4221  94.6576 14.96723391 46424","DECAY_DATE":null,"PERIOD":"96.210"}];
